KUZGTU 1 (RS47S)        
1 57217U 23091AV  26157.96059196  .00013190  00000+0  46084-3 0  9991
2 57217  97.5063 222.3382 0012292 129.4233 230.8097 15.29624374162816
SONATE-2                
1 59112U 24043Q   26157.67150863  .00045896  00000+0  61269-3 0  9996
2 59112  97.5528 307.4303 0006578 232.3278 127.7381 15.57931629126252
MESAT1                  
1 60209U 24125G   26157.86043104  .00059715  00000+0  67870-3 0  9995
2 60209  97.2307  15.1151 0008562 245.2097 114.8271 15.62093055107953
OOV-CUBE (TUBSAT-30)    
1 60240U 24128F   26157.87486527  .00002819  00000+0  22099-3 0  9991
2 60240  61.9952 261.5303 0045919 131.4461 229.0588 15.02728483104564
COLIBRI-S (RS67S)       
1 61746U 24199M   26157.97453260  .00023659  00000+0  46445-3 0  9996
2 61746  97.3006  31.7381 0006779 326.7022  33.3801 15.47301572135838
HORS 3 (RS81S)          
1 61753U 24199U   26157.98392204  .00040207  00000+0  61503-3 0  9995
2 61753  97.2989  33.6262 0004548 336.5476  23.5570 15.54269587135974
HORS 4 (RS82S)          
1 61754U 24199V   26157.97450068  .00051609  00000+0  66851-3 0  9997
2 61754  97.2935  34.7540 0003359 327.2654  32.8394 15.58728541136052
ARCTICSAT 1 (RS74S)     
1 61762U 24199AD  26157.97744949  .00925874  45821-3  13167-2 0  9999
2 61762  97.2846  41.4067 0007067 201.7931 158.3051 16.05655039136480
SIT-2086                
1 61764U 24199AF  26158.01422468  .00040020  00000+0  65527-3 0  9991
2 61764  97.2946  34.1688 0004637 308.3264  51.7572 15.52381014132855
HYPERVIEW 1G (RS66S)    
1 61772U 24199AP  26157.95752392  .00144151  00000+0  10342-2 0  9998
2 61772  97.2892  37.1789 0002089 297.7200  62.3852 15.73232026133063
ALTAIR (RS65S)          
1 61779U 24199AW  26157.95530589  .00012990  00000+0  36217-3 0  9992
2 61779  97.3040  27.3743 0012186 351.4866   8.6170 15.36819972135543
ASRTU-1 (AO-123)        
1 61781U 24199AY  26157.99954287  .00008701  00000+0  25357-3 0  9992
2 61781  97.3012  26.7624 0013389 353.2327   6.8734 15.35528344132366
SAMSAT-IONOSPHERE (RS7*)
1 61784U 24199BB  26157.97044549  .00049088  00000+0  68480-3 0  9991
2 61784  97.2957  33.6236 0006439 329.3594  30.7285 15.56731188135972
RTU MIREA 1 (RS51S)     
1 61785U 24199BC  26157.95267529  .00062998  00000+0  77678-3 0  9999
2 61785  97.2948  34.3860 0005942 323.9583  36.1272 15.59974386132874
TEVEL2-4                
1 63213U 25052D   26157.68290927  .00021961  00000+0  66367-3 0  9992
2 63213  97.3916  54.0604 0004290 122.6976 237.4682 15.34240261 68508
TEVEL2-5                
1 63214U 25052E   26157.96315887  .00019993  00000+0  60754-3 0  9993
2 63214  97.3910  54.2903 0004301 124.6483 235.5166 15.34083480 68543
TEVEL2-6                
1 63215U 25052F   26157.64910107  .00021827  00000+0  66393-3 0  9999
2 63215  97.3912  53.9608 0004349 124.5503 235.6151 15.34033267 68495
TEVEL2-1                
1 63217U 25052H   26157.67451640  .00021533  00000+0  66584-3 0  9992
2 63217  97.3884  53.6229 0004098 133.6962 226.4621 15.33515217 68480
TEVEL2-3                
1 63218U 25052J   26157.99577672  .00020039  00000+0  61865-3 0  9999
2 63218  97.3886  53.9649 0004191 134.9154 225.2429 15.33580107 68532
TEVEL2-2                
1 63219U 25052K   26157.67488653  .00021712  00000+0  67117-3 0  9990
2 63219  97.3886  53.6255 0004082 135.2469 224.9104 15.33523314 68482
TEVEL2-9                
1 63237U 25052AD  26158.03083291  .00018547  00000+0  60941-3 0  9990
2 63237  97.3948  53.3781 0006776 159.6599 200.4913 15.31586592 68479
TEVEL2-7                
1 63238U 25052AE  26157.67773882  .00018936  00000+0  62791-3 0  9999
2 63238  97.3947  52.9464 0006821 161.8980 198.2506 15.31287238 68413
TEVEL2-8                
1 63239U 25052AF  26157.94726947  .00018419  00000+0  61101-3 0  9990
2 63239  97.3945  53.1926 0006836 161.4013 198.7479 15.31279779 68456
INNOSAT 16 (RS92S7)     
1 64878U 25155C   26158.16226129  .00006058  00000+0  24286-3 0  9995
2 64878  97.4560 125.3232 0009380 211.9986 148.0683 15.25350974 79142
GEOSCAN 6 (RS92S6)      
1 64879U 25155D   26157.97930105  .00011868  00000+0  41135-3 0  9997
2 64879  97.4554 126.4935 0006977 197.5338 162.5662 15.29960554 79207
GEOSCAN 1 (RS92S1)      
1 64880U 25155E   26158.18180298  .00012073  00000+0  41095-3 0  9997
2 64880  97.4551 126.8361 0006937 196.7557 163.3455 15.30544591 79247
239ALFEROV (RS61S)      
1 64881U 25155F   26158.16553813  .00015660  00000+0  49806-3 0  9996
2 64881  97.4552 127.3479 0006586 193.0652 167.0421 15.32672950 79271
GEOSCAN 2 (RS92S2)      
1 64890U 25155Q   26158.17725962  .00012049  00000+0  40672-3 0  9993
2 64890  97.4550 126.9801 0006794 181.4187 178.7036 15.30817049 79255
GEOSCAN 5 (RS92S5)      
1 64891U 25155R   26157.96081954  .00015688  00000+0  49422-3 0  9990
2 64891  97.4544 127.2754 0005228 196.8676 163.2393 15.32985660 79256
GEOSCAN 4 (RS92S4)      
1 64892U 25155S   26158.01128667  .00016422  00000+0  51473-3 0  9997
2 64892  97.4548 127.3717 0005300 197.2460 162.8602 15.33135775 79262
