OBJECT_NAME,OBJECT_ID,EPOCH,MEAN_MOTION,ECCENTRICITY,INCLINATION,RA_OF_ASC_NODE,ARG_OF_PERICENTER,MEAN_ANOMALY,EPHEMERIS_TYPE,CLASSIFICATION_TYPE,NORAD_CAT_ID,ELEMENT_SET_NO,REV_AT_EPOCH,BSTAR,MEAN_MOTION_DOT,MEAN_MOTION_DDOT
KUZGTU 1 (RS47S),2023-091AV,2026-06-06T23:03:15.145344,15.29624374,.00122927,97.5063,222.3382,129.4233,230.8097,0,U,57217,999,16281,.46083619E-3,.1319E-3,0
SONATE-2,2024-043Q,2026-06-06T16:06:58.345632,15.57931629,.00065788,97.5528,307.4303,232.3278,127.7381,0,U,59112,999,12625,.61269196E-3,.45896E-3,0
MESAT1,2024-125G,2026-06-06T20:39:01.241856,15.62093055,.00085627,97.2307,15.1151,245.2097,114.8271,0,U,60209,999,10795,.67870469E-3,.59715E-3,0
OOV-CUBE (TUBSAT-30),2024-128F,2026-06-06T20:59:48.359328,15.02728483,.00459198,61.9952,261.5303,131.4461,229.0588,0,U,60240,999,10456,.22098619E-3,.2819E-4,0
COLIBRI-S (RS67S),2024-199M,2026-06-06T23:23:19.616640,15.47301572,.00067798,97.3006,31.7381,326.7022,33.3801,0,U,61746,999,13583,.46444553E-3,.23659E-3,0
HORS 3 (RS81S),2024-199U,2026-06-06T23:36:50.864256,15.54269587,.00045481,97.2989,33.6262,336.5476,23.5570,0,U,61753,999,13597,.6150261E-3,.40207E-3,0
HORS 4 (RS82S),2024-199V,2026-06-06T23:23:16.858752,15.58728541,.00033592,97.2935,34.7540,327.2654,32.8394,0,U,61754,999,13605,.66850842E-3,.51609E-3,0
ARCTICSAT 1 (RS74S),2024-199AD,2026-06-06T23:27:31.635936,16.05655039,.00070678,97.2846,41.4067,201.7931,158.3051,0,U,61762,999,13648,.13167033E-2,.925874E-2,.45821054E-3
SIT-2086,2024-199AF,2026-06-07T00:20:29.012352,15.52381014,.00046377,97.2946,34.1688,308.3264,51.7572,0,U,61764,999,13285,.65526567E-3,.4002E-3,0
HYPERVIEW 1G (RS66S),2024-199AP,2026-06-06T22:58:50.066688,15.73232026,.0002089,97.2892,37.1789,297.7200,62.3852,0,U,61772,999,13306,.10342217E-2,.144151E-2,0
ALTAIR (RS65S),2024-199AW,2026-06-06T22:55:38.428896,15.36819972,.00121862,97.3040,27.3743,351.4866,8.6170,0,U,61779,999,13554,.36217017E-3,.1299E-3,0
ASRTU-1 (AO-123),2024-199AY,2026-06-06T23:59:20.503968,15.35528344,.00133892,97.3012,26.7624,353.2327,6.8734,0,U,61781,999,13236,.25357472E-3,.8701E-4,0
SAMSAT-IONOSPHERE (RS75S),2024-199BB,2026-06-06T23:17:26.490336,15.56731188,.00064392,97.2957,33.6236,329.3594,30.7285,0,U,61784,999,13597,.68480027E-3,.49088E-3,0
RTU MIREA 1 (RS51S),2024-199BC,2026-06-06T22:51:51.145056,15.59974386,.00059424,97.2948,34.3860,323.9583,36.1272,0,U,61785,999,13287,.77678026E-3,.62998E-3,0
TEVEL2-4,2025-052D,2026-06-06T16:23:23.360928,15.34240261,.00042909,97.3916,54.0604,122.6976,237.4682,0,U,63213,999,6850,.66366658E-3,.21961E-3,0
TEVEL2-5,2025-052E,2026-06-06T23:06:56.926368,15.34083480,.00043019,97.3910,54.2903,124.6483,235.5166,0,U,63214,999,6854,.6075362E-3,.19993E-3,0
TEVEL2-6,2025-052F,2026-06-06T15:34:42.332448,15.34033267,.00043496,97.3912,53.9608,124.5503,235.6151,0,U,63215,999,6849,.66393419E-3,.21827E-3,0
TEVEL2-1,2025-052H,2026-06-06T16:11:18.216960,15.33515217,.00040989,97.3884,53.6229,133.6962,226.4621,0,U,63217,999,6848,.66584155E-3,.21533E-3,0
TEVEL2-3,2025-052J,2026-06-06T23:53:55.108608,15.33580107,.00041915,97.3886,53.9649,134.9154,225.2429,0,U,63218,999,6853,.61864532E-3,.20039E-3,0
TEVEL2-2,2025-052K,2026-06-06T16:11:50.196192,15.33523314,.00040826,97.3886,53.6255,135.2469,224.9104,0,U,63219,999,6848,.67116981E-3,.21712E-3,0
TEVEL2-9,2025-052AD,2026-06-07T00:44:23.963424,15.31586592,.00067769,97.3948,53.3781,159.6599,200.4913,0,U,63237,999,6847,.60940957E-3,.18547E-3,0
TEVEL2-7,2025-052AE,2026-06-06T16:15:56.634048,15.31287238,.00068216,97.3947,52.9464,161.8980,198.2506,0,U,63238,999,6841,.62791221E-3,.18936E-3,0
TEVEL2-8,2025-052AF,2026-06-06T22:44:04.082208,15.31279779,.00068362,97.3945,53.1926,161.4013,198.7479,0,U,63239,999,6845,.611007E-3,.18419E-3,0
INNOSAT 16 (RS92S7),2025-155C,2026-06-07T03:53:39.375456,15.25350974,.00093807,97.4560,125.3232,211.9986,148.0683,0,U,64878,999,7914,.24286436E-3,.6058E-4,0
GEOSCAN 6 (RS92S6),2025-155D,2026-06-06T23:30:11.610720,15.29960554,.00069774,97.4554,126.4935,197.5338,162.5662,0,U,64879,999,7920,.41134912E-3,.11868E-3,0
GEOSCAN 1 (RS92S1),2025-155E,2026-06-07T04:21:47.777472,15.30544591,.00069378,97.4551,126.8361,196.7557,163.3455,0,U,64880,999,7924,.41095167E-3,.12073E-3,0
239ALFEROV (RS61S),2025-155F,2026-06-07T03:58:22.494432,15.32672950,.0006586,97.4552,127.3479,193.0652,167.0421,0,U,64881,999,7927,.49805744E-3,.1566E-3,0
GEOSCAN 2 (RS92S2),2025-155Q,2026-06-07T04:15:15.231168,15.30817049,.00067947,97.4550,126.9801,181.4187,178.7036,0,U,64890,999,7925,.40671677E-3,.12049E-3,0
GEOSCAN 5 (RS92S5),2025-155R,2026-06-06T23:03:34.808256,15.32985660,.00052281,97.4544,127.2754,196.8676,163.2393,0,U,64891,999,7925,.49421774E-3,.15688E-3,0
GEOSCAN 4 (RS92S4),2025-155S,2026-06-07T00:16:15.168288,15.33135775,.00053007,97.4548,127.3717,197.2460,162.8602,0,U,64892,999,7926,.51473443E-3,.16422E-3,0
